STARLINK-1008           
1 44714U 19074B   26188.41069214  .00059935  00000+0  95237-3 0  9992
2 44714  53.1509 331.7165 0003163 284.4813  75.5847 15.52776777367358
STARLINK-1012           
1 44718U 19074F   26188.53116391  .00052883  00000+0  83181-3 0  9998
2 44718  53.1555 331.3662 0003670 289.3024  70.7589 15.53110834367360
STARLINK-1017           
1 44723U 19074L   26188.41654568  .00037256  00000+0  11294-2 0  9996
2 44723  53.0477 334.8496 0001770 108.3355 251.7839 15.33801265367280
STARLINK-1020           
1 44725U 19074N   26188.51299084 -.00097695  00000+0 -12467-2 0  9995
2 44725  53.1565 354.3348 0004783 222.9791 137.0849 15.58873072367029
STARLINK-1036           
1 44741U 19074AE  26188.40192742  .00063564  00000+0  39306-3 0  9992
2 44741  53.0429 320.0895 0002139 354.8829   5.2168 15.76516131367482
STARLINK-1039           
1 44744U 19074AH  26187.98056999  .00034532  00000+0  11537-2 0  9998
2 44744  53.0580  22.9235 0002735 143.9623 216.1561 15.30724342366574
STARLINK-1042           
1 44747U 19074AL  26188.17806215  .00015575  00000+0  22972-3 0  9999
2 44747  53.0402 238.9436 0000780  68.8920 291.2173 15.55598301368638
STARLINK-1043           
1 44748U 19074AM  26188.58335647  .00069708  00000+0  65231-3 0  9993
2 44748  53.0486 331.4027 0001210   2.3492 238.4900 15.66632457  6062
STARLINK-1046           
1 44751U 19074AQ  26188.51627436  .00072395  00000+0  90363-3 0  9990
2 44751  53.0465 354.8448 0004441 187.1188 172.9762 15.59227608367015
STARLINK-1047           
1 44752U 19074AR  26188.33336806  .00027231  00000+0  79778-3 0  9995
2 44752  53.0698 305.9792 0001995 190.9572 235.2861 15.35038899  5943
STARLINK-1048           
1 44753U 19074AS  26188.34188488  .00046785  00000+0  37496-3 0  9994
2 44753  53.0428 303.2564 0002324 129.3226 230.7997 15.70582872367712
STARLINK-1063           
1 44768U 19074BH  26188.48802552  .00064488  00000+0  10209-2 0  9992
2 44768  53.1545  12.3829 0001599 243.8067 116.2780 15.52852352366809
STARLINK-1067           
1 44771U 19074BL  26188.58335647  .00032217  00000+0  15165-3 0  9995
2 44771  53.0415 331.5297 0004686 312.0730  76.3774 15.82836518  6101
STARLINK-1068           
1 44772U 19074BM  26188.58335647 -.00036711  00000+0 -18551-3 0  9993
2 44772  53.0390 305.6171 0004465 324.0491 183.1650 15.80584091  6158
STARLINK-1114           
1 44927U 20001P   26188.48312115  .00049914  00000+0  36285-3 0  9992
2 44927  53.0386 105.0502 0001627 160.5093 199.5987 15.72875832358806
STARLINK-1123           
1 44930U 20001S   26188.49454306  .00069552  00000+0  75686-3 0  9994
2 44930  53.1395 134.2033 0007256  55.6791 304.4910 15.62798394358413
STARLINK-1094           
1 44941U 20001AD  26188.47099137  .00070871  00000+0  91763-3 0  9991
2 44941  53.1489 110.2880 0006674  80.4690 279.7077 15.58254116358759
STARLINK-1122           
1 44949U 20001AM  26188.22170705  .00036569  00000+0  48061-3 0  9992
2 44949  53.1527 112.0656 0006826  70.9113 289.2638 15.58145514358709
STARLINK-1080           
1 44961U 20001AZ  26188.04399354  .00046644  00000+0  37002-3 0  9997
2 44961  53.0435  67.5943 0002217 138.8989 221.2195 15.70829933359295
STARLINK-1090           
1 44968U 20001BG  26188.54090525  .00049932  00000+0  75303-3 0  9996
2 44968  53.1462  99.0820 0005401  83.8508 276.3118 15.54288322358918
STARLINK-1132           
1 45044U 20006A   26187.00321598  .00039551  00000+0  49474-3 0  9990
2 45044  53.1489  46.4277 0002390 144.3107 215.8067 15.59441422355293
STARLINK-1131           
1 45047U 20006D   26187.91531894  .00052121  00000+0  73151-3 0  9992
2 45047  53.1529  75.5848 0004343 107.5799 252.5688 15.56235316354966
STARLINK-1134           
1 45048U 20006E   26187.96355058  .00035171  00000+0  38705-3 0  9996
2 45048  53.0222  23.3518 0006200 182.7192 177.3789 15.62816406355674
STARLINK-1156           
1 45054U 20006L   26188.14053730  .00051607  00000+0  13729-2 0  9996
2 45054  53.1552  83.8841 0004611 105.3537 254.7976 15.37735381354868
STARLINK-1166           
1 45060U 20006S   26188.50687647  .00039728  00000+0  34854-3 0  9996
2 45060  53.0429  53.3515 0000608 123.8152 236.2922 15.68464164355305
STARLINK-1169           
1 45061U 20006T   26187.91424297  .00039594  00000+0  94478-3 0  9990
2 45061  53.1533  82.8054 0005297  72.8764 287.2821 15.41172696354860
STARLINK-1171           
1 45062U 20006U   26188.51534072  .00071414  00000+0  39072-3 0  9997
2 45062  53.0378  16.2002 0000321  10.2596 349.8430 15.79216474355825
STARLINK-1133           
1 45064U 20006W   26187.91754359  .00037285  00000+0  10038-2 0  9992
2 45064  53.1559  61.7178 0004589  99.4997 260.6526 15.37513834355169
STARLINK-1167           
1 45071U 20006AD  26187.87182844  .00017057  00000+0  42803-3 0  9990
2 45071  53.1551  60.4684 0002782  63.6785 296.4506 15.40144679355175
STARLINK-1168           
1 45072U 20006AE  26188.08656253  .00036137  00000+0  95729-3 0  9990
2 45072  53.1554  61.0584 0003832  98.3198 261.8241 15.38031223355185
